K13TH2F  7.0   0.15 K194R 292.58517  312.59210  126.95543    2.89271  0.0220720  0.00340796  43.7327453  2 MPO466447    15   5 2013-2017 0.07 M-v 38h MPC        0000         2013 TF172
K13TH2G  8.0   0.15 K194R  12.46550  338.94476   14.45819    4.80135  0.3199769  0.00297648  47.8630790  3 MPO466447    10   3 2013-2016 0.10 M-v 38h MPC        0000         2013 TG172
K13TH2H  7.6   0.15 K194R  31.58106  287.36513   42.61362   11.57083  0.2589431  0.00358316  42.2952434  2 MPO466448    21   4 2013-2017 0.13 M-v 38h MPC        0000         2013 TH172
K13TH2J  6.7   0.15 K194R 342.47388  248.14098  176.52190   27.38695  0.2854350  0.00264987  51.7192803  3 MPO466448    11   3 2013-2016 0.14 M-v 38h MPC        0000         2013 TJ172
K13TH2K  6.8   0.15 K194R  45.74816  246.31738   71.86385   12.61253  0.2059120  0.00311596  46.4239306  2 MPO466448    18   3 2013-2016 0.12 M-v 38h MPC        0000         2013 TK172
K13TH2L  6.8   0.15 K194R 196.70886   79.10795   95.04262    1.79109  0.0605427  0.00340423  43.7646430  3 MPO466448    11   4 2013-2017 0.06 M-v 38h MPC        0000         2013 TL172
K13TH2M  7.6   0.15 K194R   2.00404  351.92305   14.85285   12.61527  0.4772655  0.00169469  69.6747863  3 MPO466448     9   3 2013-2016 0.14 M-v 38h MPC        0000         2013 TM172
K13U15E  8.5   0.15 K194R   6.03315   18.35403   24.19494    6.73782  0.6478425  0.00215833  59.3003319  0 MPO456875    87   9 2003-2016 0.12 M-v 38h MPC        0000         2013 UE15
K13U15H  7.7   0.15 K194R 353.90554  282.96724  176.54631   26.08980  0.7941085  0.00044434 170.0825472  3 MPO389099    10   3 2013-2015 0.18 M-v 38h MPC        0000         2013 UH15
K13U15J  7.0   0.15 K194R 127.00338   54.86417  169.73014   33.04398  0.3105055  0.00255857  52.9425243  4 MPO389099    15   2 2013-2014 0.31 M-v 38h MPC        0000         2013 UJ15
K13U15K  6.1   0.15 K194R 204.54018   55.16282  119.38699   11.69361  0.1683758  0.00302733  47.3255923  5 MPO389100    10   2 2013-2014 0.19 M-v 38h MPC        0000         2013 UK15
K13U15N  7.3   0.15 K194R  93.61020  116.89209  166.09709    3.36575  0.0571876  0.00325794  45.0650908  3 MPO423791    44   4 2013-2017 0.12 M-v 38h MPC        0000         2013 UN15
K13U15O  6.8   0.15 K194R 110.60101  203.19122   64.01687    3.73265  0.0518842  0.00346406  43.2592651  3 MPO423791    25   4 2013-2017 0.08 M-v 38h MPC        0000         2013 UO15
K13U15P  7.5   0.15 K194R 339.62224  325.88977   82.04482    2.47206  0.0761774  0.00310743  46.5087621  3 MPO423791    47   3 2013-2015 0.07 M-v 38h MPC        0000         2013 UP15
K13U15Q  6.4   0.15 K194R 174.03636   17.13573  189.13535   27.37154  0.1146771  0.00353056  42.7143431  3 MPO473293    49   5 2013-2017 0.08 M-v 38h MPC        0000         2013 UQ15
K13U15R 11.1   0.15 K194R   6.99297  163.28951  194.62353   22.25971  0.7183241  0.00237837  55.5839823  0 MPO435008    29   3 2013-2017 0.12 M-v 38h MPC        0000         2013 UR15
K13U15S  7.9   0.15 K194R 331.44991  260.64626  158.89815    2.01849  0.0674210  0.00450592  36.3033615  4 MPO423791    39   2 2013-2015 0.08 M-v 38h MPC        0000         2013 US15
K13U16W  7.3   0.15 K194R 265.05820   45.09607   78.06286    1.97295  0.0709654  0.00334613  44.2697656  3 MPO420432    57   4 2013-2017 0.11 M-v 38h MPC        0000         2013 UW16
K13U16X  8.0   0.15 K194R 123.23356  199.87266   37.26024    4.42097  0.2405156  0.00401387  39.2127189  3 MPO420432    44   4 2013-2017 0.11 M-v 38h MPC        0000         2013 UX16
K13U16Y  7.6   0.15 K194R  95.89689  221.12412   52.89457    2.35870  0.0992258  0.00338161  43.9595986  3 MPO420432    45   5 2013-2017 0.13 M-v 38h MPC        0000         2013 UY16
K13U16Z  7.8   0.15 K194R 289.38977  100.21865   23.06701   11.22021  0.2755512  0.00332320  44.4731804  3 MPO420432    40   4 2013-2017 0.10 M-v 38h MPC        0000         2013 UZ16
K13U17A  8.9   0.15 K194R  39.23291  302.45704   30.28218    1.97702  0.1512210  0.00398427  39.4067054  3 MPO420432    32   3 2013-2015 0.10 M-v 38h MPC        0000         2013 UA17
K13U17B  7.0   0.15 K194R  32.00660  309.08732   15.37997   32.88732  0.2884708  0.00199415  62.5122075  2 MPO420433    32   3 2013-2017 0.07 M-v 38h MPC        0000         2013 UB17
K13U17C 11.4   0.15 K194R   4.86866  205.22973  194.16359   32.49817  0.1249256  0.01164574  19.2763380  2 MPO420433    23   3 2013-2015 0.10 M-v 38h MPC        0000         2013 UC17
K13U17D  9.2   0.15 K194R  11.37256  341.16565   16.80242   26.39232  0.3958723  0.00238981  55.4065031  4 MPO420433    15   2 2013-2014 0.12 M-v 38h MPC        0000         2013 UD17
K13U17E  8.3   0.15 K194R  60.96739  206.18310  110.09703    0.71651  0.0477350  0.00349462  43.0067180  3 MPO420433    26   3 2013-2015 0.11 M-v 38h MPC        0000         2013 UE17
K13U17F  8.9   0.15 K194R  28.56478  149.57754  190.86486   17.13853  0.2512466  0.00398563  39.3977458  3 MPO420433    38   3 2013-2015 0.11 M-v 38h MPC        0000         2013 UF17
K13U17G  8.3   0.15 K194R 317.25340  243.42319  187.79003    7.65170  0.0713678  0.00342278  43.6063797  3 MPO456875    49   5 2013-2018 0.13 M-v 38h MPC        0000         2013 UG17
K13U17H  9.0   0.15 K194R 352.70931  219.17831  181.65701    9.33841  0.3000102  0.00300563  47.5531260  2 MPO420434    39   4 2013-2017 0.10 M-v 38h MPC        0000         2013 UH17
K13U17J  9.0   0.15 K194R 354.23215  358.68596   36.70392    6.82732  0.1828723  0.00398054  39.4312952  3 MPO420434    60   3 2013-2015 0.10 M-v 38h MPC        0000         2013 UJ17
K13U17K  6.8   0.15 K194R 224.96509  150.55534   21.35073   25.02690  0.2859826  0.00342654  43.5744938  4 MPO473293    41   4 2013-2018 0.16 M-v 38h MPC        0000         2013 UK17
K13U17L  8.1   0.15 K194R  88.30956  208.24925   82.26631    1.83184  0.0299085  0.00353881  42.6478924  2 MPO456875    37   5 2013-2018 0.09 M-v 38h MPC        0000         2013 UL17
K13U17M  7.7   0.15 K194R  76.82626  111.26672  185.55642   13.00171  0.0811912  0.00356688  42.4238819  2 MPO420434    46   3 2004-2015 0.15 M-v 38h MPC        0000         2013 UM17
K13U17N  7.9   0.15 K194R 221.77905  104.56033   57.47356    2.95098  0.0246375  0.00344190  43.4447404  3 MPO456875    44   5 2013-2018 0.11 M-v 38h MPC        0000         2013 UN17
K13U17O  8.3   0.15 K194R 353.49283  244.06312  158.71394    3.83370  0.3860604  0.00242918  54.8061558  2 MPO473293    50   5 2013-2018 0.10 M-v 38h MPC        0000         2013 UO17
K13U17P  7.9   0.15 K194R  46.06004  237.28208   94.82380    0.94517  0.0509214  0.00340252  43.7792832  4 MPO420435    34   3 2013-2015 0.09 M-v 38h MPC        0000         2013 UP17
K13U17Q  8.8   0.15 K194R  80.89975  272.42481   20.78526   11.44100  0.0936049  0.00446557  36.5217535  2 MPO420435    38   4 2013-2017 0.13 M-v 38h MPC        0000         2013 UQ17
K13U17R  7.6   0.15 K194R 238.88574    7.91211  141.97739    3.11387  0.0702855  0.00335155  44.2220204  5 MPO420435    41   3 2013-2015 0.15 M-v 38h MPC        0000         2013 UR17
K13U17S  8.0   0.15 K194R 117.94057  146.48646  114.34757    2.91203  0.0405687  0.00355779  42.4960984  4 MPO420435    31   3 2013-2015 0.15 M-v 38h MPC        0000         2013 US17
K13U17T  7.7   0.15 K194R 132.15452  205.93208   42.01757    4.01154  0.0295718  0.00350068  42.9570224  3 MPO473293    29   4 2013-2018 0.07 M-v 38h MPC        0000         2013 UT17
K13U17U 10.2   0.15 K194R  85.92069  248.89128   27.95842    8.52348  0.2520415  0.00749668  25.8557314  4 MPO420436    23   2 2013-2015 0.12 M-v 38h MPC        0000         2013 UU17
K13U17V  8.2   0.15 K194R  93.32272  205.67632   64.83871    2.08580  0.1839628  0.00398620  39.3939702  4 MPO420436    47   3 2013-2015 0.13 M-v 38h MPC        0000         2013 UV17
K13U17W  7.6   0.15 K194R 202.42377   86.94525   94.22000    1.92749  0.0139872  0.00323959  45.2351025  3 MPO420436    53   4 2013-2017 0.12 M-v 38h MPC        0000         2013 UW17
K13U17X  7.8   0.15 K194R 169.46790  180.47109   29.86993    3.02423  0.1394805  0.00397703  39.4545070  4 MPO420436    37   3 2013-2015 0.12 M-v 38h MPC        0000         2013 UX17
K13U17Y  7.4   0.15 K194R 121.56746  226.24593   29.32993    4.46274  0.0564164  0.00334718  44.2605252  4 MPO420437    37   3 2013-2015 0.10 M-v 38h MPC        0000         2013 UY17
K13U17Z  7.9   0.15 K194R  22.30265  330.93895   22.31507    7.18448  0.1758201  0.00301537  47.4506900  4 MPO420437    37   3 2013-2015 0.09 M-v 38h MPC        0000         2013 UZ17
K13U18A  7.9   0.15 K194R 199.15212  158.32458   26.89967    6.79639  0.0188141  0.00350157  42.9497347  4 MPO420437    33   3 2013-2015 0.12 M-v 38h MPC        0000         2013 UA18
K13U18B  7.7   0.15 K194R 334.61062  276.01777  134.77147    3.55768  0.0301002  0.00325887  45.0565388  5 MPO420437    28   2 2013-2015 0.11 M-v 38h MPC        0000         2013 UB18
K13U18C  8.3   0.15 K194R 106.02882  117.22091  155.87922    2.94192  0.0448789  0.00352928  42.7246975  4 MPO420437    34   3 2013-2015 0.14 M-v 38h MPC        0000         2013 UC18
K13U18D  7.5   0.15 K194R 309.73805   12.72229   71.18759    2.72657  0.0955280  0.00328100  44.8536957  3 MPO420437    49   3 2013-2015 0.11 M-v 38h MPC        0000         2013 UD18
K13U18E  8.2   0.15 K194R  21.54075  320.10792   39.75512    2.44929  0.0906844  0.00324021  45.2294217  4 MPO420438    30   2 2013-2015 0.10 M-v 38h MPC        0000         2013 UE18
K13U18F  7.5   0.15 K194R 290.78494  282.59426  193.21309   10.47442  0.1934955  0.00312917  46.2930983  4 MPO420438    36   3 2013-2015 0.13 M-v 38h MPC        0000         2013 UF18
K13U18G  7.8   0.15 K194R  81.29885  190.34388   99.13677    0.93133  0.1141172  0.00329291  44.7455444  4 MPO424610    34   3 2013-2015 0.13 M-v 38h MPC        0000         2013 UG18
K13U18W  8.5   0.15 K194R 302.91162  283.18039  178.47959    6.78348  0.2002565  0.00400887  39.2453381  4 MPO435563    31   2 2013-2015 0.13 M-v 38h MPC        0000         2013 UW18
